{"fetched_at":"2026-07-23T17:55:11.690Z","source":"https://celestrak.org/NORAD/elements/gp.php?GROUP=qianfan&FORMAT=JSON","constellation":"qianfan","records":[{"OBJECT_NAME":"QIANFAN-47","OBJECT_ID":"2024-232M","EPOCH":"2026-07-23T05:27:23.916096","CLASSIFICATION_TYPE":"U","MEAN_MOTION":13.51022197,"ECCENTRICITY":0.00127782,"INCLINATION":89.0076,"RA_OF_ASC_NODE":18.8625,"ARG_OF_PERICENTER":275.7589,"MEAN_ANOMALY":84.2105,"EPHEMERIS_TYPE":0,"NORAD_CAT_ID":62248,"ELEMENT_SET_NO":999,"REV_AT_EPOCH":12928,"BSTAR":0.000081465927,"MEAN_MOTION_DOT":6.4e-7,"MEAN_MOTION_DDOT":0},{"OBJECT_NAME":"QIANFAN-48","OBJECT_ID":"2024-232N","EPOCH":"2026-07-23T06:20:29.070240","CLASSIFICATION_TYPE":"U","MEAN_MOTION":13.5101629,"ECCENTRICITY":0.00150505,"INCLINATION":89.008,"RA_OF_ASC_NODE":18.8693,"ARG_OF_PERICENTER":278.5866,"MEAN_ANOMALY":81.3579,"EPHEMERIS_TYPE":0,"NORAD_CAT_ID":62249,"ELEMENT_SET_NO":999,"REV_AT_EPOCH":12929,"BSTAR":0.000071963473,"MEAN_MOTION_DOT":5.8e-7,"MEAN_MOTION_DDOT":0},{"OBJECT_NAME":"QIANFAN-49","OBJECT_ID":"2024-232P","EPOCH":"2026-07-23T06:02:48.727968","CLASSIFICATION_TYPE":"U","MEAN_MOTION":13.5101442,"ECCENTRICITY":0.001212,"INCLINATION":89.0079,"RA_OF_ASC_NODE":18.8813,"ARG_OF_PERICENTER":272.3724,"MEAN_ANOMALY":87.6039,"EPHEMERIS_TYPE":0,"NORAD_CAT_ID":62250,"ELEMENT_SET_NO":999,"REV_AT_EPOCH":9788,"BSTAR":0.00005269158,"MEAN_MOTION_DOT":4.6e-7,"MEAN_MOTION_DDOT":0},{"OBJECT_NAME":"QIANFAN-50","OBJECT_ID":"2024-232Q","EPOCH":"2026-07-23T04:51:51.003360","CLASSIFICATION_TYPE":"U","MEAN_MOTION":13.51023381,"ECCENTRICITY":0.00137774,"INCLINATION":89.0085,"RA_OF_ASC_NODE":18.9066,"ARG_OF_PERICENTER":274.1457,"MEAN_ANOMALY":85.8119,"EPHEMERIS_TYPE":0,"NORAD_CAT_ID":62251,"ELEMENT_SET_NO":999,"REV_AT_EPOCH":9790,"BSTAR":0.000081828883,"MEAN_MOTION_DOT":6.5e-7,"MEAN_MOTION_DDOT":0},{"OBJECT_NAME":"QIANFAN-51","OBJECT_ID":"2024-232R","EPOCH":"2026-07-23T06:14:49.113024","CLASSIFICATION_TYPE":"U","MEAN_MOTION":13.51022553,"ECCENTRICITY":0.00112585,"INCLINATION":89.0079,"RA_OF_ASC_NODE":18.881,"ARG_OF_PERICENTER":278.6217,"MEAN_ANOMALY":81.3659,"EPHEMERIS_TYPE":0,"NORAD_CAT_ID":62252,"ELEMENT_SET_NO":999,"REV_AT_EPOCH":9790,"BSTAR":0.000066510423,"MEAN_MOTION_DOT":5.5e-7,"MEAN_MOTION_DDOT":0},{"OBJECT_NAME":"QIANFAN-52","OBJECT_ID":"2024-232S","EPOCH":"2026-07-23T05:09:30.381408","CLASSIFICATION_TYPE":"U","MEAN_MOTION":13.51014333,"ECCENTRICITY":0.00132635,"INCLINATION":89.0075,"RA_OF_ASC_NODE":18.7504,"ARG_OF_PERICENTER":269.3883,"MEAN_ANOMALY":90.5749,"EPHEMERIS_TYPE":0,"NORAD_CAT_ID":62253,"ELEMENT_SET_NO":999,"REV_AT_EPOCH":9798,"BSTAR":0.000091538604,"MEAN_MOTION_DOT":7.1e-7,"MEAN_MOTION_DDOT":0},{"OBJECT_NAME":"QIANFAN-53","OBJECT_ID":"2024-232T","EPOCH":"2026-07-23T06:26:39.257088","CLASSIFICATION_TYPE":"U","MEAN_MOTION":13.51010183,"ECCENTRICITY":0.0012144,"INCLINATION":89.0082,"RA_OF_ASC_NODE":18.8664,"ARG_OF_PERICENTER":270.5559,"MEAN_ANOMALY":89.4201,"EPHEMERIS_TYPE":0,"NORAD_CAT_ID":62254,"ELEMENT_SET_NO":999,"REV_AT_EPOCH":9795,"BSTAR":0.000057818897,"MEAN_MOTION_DOT":4.9e-7,"MEAN_MOTION_DDOT":0},{"OBJECT_NAME":"QIANFAN-54","OBJECT_ID":"2024-232U","EPOCH":"2026-07-23T05:39:09.373824","CLASSIFICATION_TYPE":"U","MEAN_MOTION":13.51013923,"ECCENTRICITY":0.00014957,"INCLINATION":89.0074,"RA_OF_ASC_NODE":18.5285,"ARG_OF_PERICENTER":20.4887,"MEAN_ANOMALY":339.6324,"EPHEMERIS_TYPE":0,"NORAD_CAT_ID":62255,"ELEMENT_SET_NO":999,"REV_AT_EPOCH":12945,"BSTAR":0.00003616202,"MEAN_MOTION_DOT":3.5e-7,"MEAN_MOTION_DDOT":0},{"OBJECT_NAME":"QIANFAN-55","OBJECT_ID":"2025-016A","EPOCH":"2026-07-23T06:16:51.174624","CLASSIFICATION_TYPE":"U","MEAN_MOTION":13.5101218,"ECCENTRICITY":0.00193486,"INCLINATION":88.9707,"RA_OF_ASC_NODE":80.1342,"ARG_OF_PERICENTER":66.9215,"MEAN_ANOMALY":293.3973,"EPHEMERIS_TYPE":0,"NORAD_CAT_ID":62785,"ELEMENT_SET_NO":999,"REV_AT_EPOCH":7723,"BSTAR":0.000075789373,"MEAN_MOTION_DOT":6.1e-7,"MEAN_MOTION_DDOT":0},{"OBJECT_NAME":"QIANFAN-56","OBJECT_ID":"2025-016B","EPOCH":"2026-07-23T04:53:53.589408","CLASSIFICATION_TYPE":"U","MEAN_MOTION":13.51023057,"ECCENTRICITY":0.00179983,"INCLINATION":88.9681,"RA_OF_ASC_NODE":79.9172,"ARG_OF_PERICENTER":69.2988,"MEAN_ANOMALY":291.0091,"EPHEMERIS_TYPE":0,"NORAD_CAT_ID":62786,"ELEMENT_SET_NO":999,"REV_AT_EPOCH":7727,"BSTAR":0.00011438545,"MEAN_MOTION_DOT":8.6e-7,"MEAN_MOTION_DDOT":0},{"OBJECT_NAME":"QIANFAN-57","OBJECT_ID":"2025-016C","EPOCH":"2026-07-23T05:41:16.102752","CLASSIFICATION_TYPE":"U","MEAN_MOTION":13.51010805,"ECCENTRICITY":0.00014267,"INCLINATION":88.9712,"RA_OF_ASC_NODE":80.1366,"ARG_OF_PERICENTER":94.5992,"MEAN_ANOMALY":265.5322,"EPHEMERIS_TYPE":0,"NORAD_CAT_ID":62787,"ELEMENT_SET_NO":999,"REV_AT_EPOCH":7724,"BSTAR":0.00011573393,"MEAN_MOTION_DOT":8.7e-7,"MEAN_MOTION_DDOT":0},{"OBJECT_NAME":"QIANFAN-58","OBJECT_ID":"2025-016D","EPOCH":"2026-07-23T04:59:34.970496","CLASSIFICATION_TYPE":"U","MEAN_MOTION":13.51015342,"ECCENTRICITY":0.00158428,"INCLINATION":88.9682,"RA_OF_ASC_NODE":79.9033,"ARG_OF_PERICENTER":62.8118,"MEAN_ANOMALY":297.4646,"EPHEMERIS_TYPE":0,"NORAD_CAT_ID":62788,"ELEMENT_SET_NO":999,"REV_AT_EPOCH":7728,"BSTAR":0.00011227034,"MEAN_MOTION_DOT":8.5e-7,"MEAN_MOTION_DDOT":0},{"OBJECT_NAME":"QIANFAN-59","OBJECT_ID":"2025-016E","EPOCH":"2026-07-23T05:35:08.634912","CLASSIFICATION_TYPE":"U","MEAN_MOTION":13.51019532,"ECCENTRICITY":0.00162463,"INCLINATION":88.9705,"RA_OF_ASC_NODE":80.027,"ARG_OF_PERICENTER":66.0597,"MEAN_ANOMALY":294.2254,"EPHEMERIS_TYPE":0,"NORAD_CAT_ID":62789,"ELEMENT_SET_NO":999,"REV_AT_EPOCH":7728,"BSTAR":0.00010270267,"MEAN_MOTION_DOT":7.9e-7,"MEAN_MOTION_DDOT":0},{"OBJECT_NAME":"QIANFAN-60","OBJECT_ID":"2025-016F","EPOCH":"2026-07-23T06:22:45.328224","CLASSIFICATION_TYPE":"U","MEAN_MOTION":13.51022454,"ECCENTRICITY":0.00177653,"INCLINATION":88.9686,"RA_OF_ASC_NODE":79.9527,"ARG_OF_PERICENTER":62.6175,"MEAN_ANOMALY":297.6781,"EPHEMERIS_TYPE":0,"NORAD_CAT_ID":62790,"ELEMENT_SET_NO":999,"REV_AT_EPOCH":7727,"BSTAR":0.000092057291,"MEAN_MOTION_DOT":7.2e-7,"MEAN_MOTION_DDOT":0},{"OBJECT_NAME":"QIANFAN-61","OBJECT_ID":"2025-016G","EPOCH":"2026-07-23T05:23:32.930016","CLASSIFICATION_TYPE":"U","MEAN_MOTION":13.5102249,"ECCENTRICITY":0.00167261,"INCLINATION":88.9753,"RA_OF_ASC_NODE":80.2706,"ARG_OF_PERICENTER":62.4816,"MEAN_ANOMALY":297.8032,"EPHEMERIS_TYPE":0,"NORAD_CAT_ID":62791,"ELEMENT_SET_NO":999,"REV_AT_EPOCH":7728,"BSTAR":0.000094669635,"MEAN_MOTION_DOT":7.3e-7,"MEAN_MOTION_DDOT":0},{"OBJECT_NAME":"QIANFAN-62","OBJECT_ID":"2025-016H","EPOCH":"2026-07-23T05:29:11.059872","CLASSIFICATION_TYPE":"U","MEAN_MOTION":13.51014975,"ECCENTRICITY":0.00180672,"INCLINATION":88.97,"RA_OF_ASC_NODE":80.0189,"ARG_OF_PERICENTER":62.4863,"MEAN_ANOMALY":297.8121,"EPHEMERIS_TYPE":0,"NORAD_CAT_ID":62792,"ELEMENT_SET_NO":999,"REV_AT_EPOCH":7727,"BSTAR":0.00010089218,"MEAN_MOTION_DOT":7.7e-7,"MEAN_MOTION_DDOT":0},{"OBJECT_NAME":"QIANFAN-63","OBJECT_ID":"2025-016J","EPOCH":"2026-07-23T06:04:50.075904","CLASSIFICATION_TYPE":"U","MEAN_MOTION":13.51018213,"ECCENTRICITY":0.00181784,"INCLINATION":88.9707,"RA_OF_ASC_NODE":79.9829,"ARG_OF_PERICENTER":67.1587,"MEAN_ANOMALY":293.1482,"EPHEMERIS_TYPE":0,"NORAD_CAT_ID":62793,"ELEMENT_SET_NO":999,"REV_AT_EPOCH":7731,"BSTAR":0.000087591845,"MEAN_MOTION_DOT":6.9e-7,"MEAN_MOTION_DDOT":0},{"OBJECT_NAME":"QIANFAN-64","OBJECT_ID":"2025-016K","EPOCH":"2026-07-23T05:17:32.362080","CLASSIFICATION_TYPE":"U","MEAN_MOTION":13.51014704,"ECCENTRICITY":0.00160416,"INCLINATION":88.9694,"RA_OF_ASC_NODE":79.9306,"ARG_OF_PERICENTER":61.2739,"MEAN_ANOMALY":299.0022,"EPHEMERIS_TYPE":0,"NORAD_CAT_ID":62794,"ELEMENT_SET_NO":999,"REV_AT_EPOCH":7730,"BSTAR":0.00010044471,"MEAN_MOTION_DOT":7.7e-7,"MEAN_MOTION_DDOT":0},{"OBJECT_NAME":"QIANFAN-65","OBJECT_ID":"2025-016L","EPOCH":"2026-07-23T05:11:25.392768","CLASSIFICATION_TYPE":"U","MEAN_MOTION":13.51031242,"ECCENTRICITY":0.00159117,"INCLINATION":88.969,"RA_OF_ASC_NODE":79.9491,"ARG_OF_PERICENTER":62.7923,"MEAN_ANOMALY":297.4848,"EPHEMERIS_TYPE":0,"NORAD_CAT_ID":62795,"ELEMENT_SET_NO":999,"REV_AT_EPOCH":7728,"BSTAR":0.00010160874,"MEAN_MOTION_DOT":7.8e-7,"MEAN_MOTION_DDOT":0},{"OBJECT_NAME":"QIANFAN-66","OBJECT_ID":"2025-016M","EPOCH":"2026-07-23T05:53:06.126720","CLASSIFICATION_TYPE":"U","MEAN_MOTION":13.51024445,"ECCENTRICITY":0.00169622,"INCLINATION":88.971,"RA_OF_ASC_NODE":79.9599,"ARG_OF_PERICENTER":58.697,"MEAN_ANOMALY":301.5839,"EPHEMERIS_TYPE":0,"NORAD_CAT_ID":62796,"ELEMENT_SET_NO":999,"REV_AT_EPOCH":7733,"BSTAR":0.00011808249,"MEAN_MOTION_DOT":8.9e-7,"MEAN_MOTION_DDOT":0},{"OBJECT_NAME":"QIANFAN-67","OBJECT_ID":"2025-016N","EPOCH":"2026-07-23T05:59:04.684992","CLASSIFICATION_TYPE":"U","MEAN_MOTION":13.51024215,"ECCENTRICITY":0.00170082,"INCLINATION":88.97,"RA_OF_ASC_NODE":79.9632,"ARG_OF_PERICENTER":64.7954,"MEAN_ANOMALY":295.4959,"EPHEMERIS_TYPE":0,"NORAD_CAT_ID":62797,"ELEMENT_SET_NO":999,"REV_AT_EPOCH":7730,"BSTAR":0.00015715587,"MEAN_MOTION_DOT":0.00000114,"MEAN_MOTION_DDOT":0},{"OBJECT_NAME":"QIANFAN-68","OBJECT_ID":"2025-016P","EPOCH":"2026-07-23T05:46:55.601184","CLASSIFICATION_TYPE":"U","MEAN_MOTION":13.51016936,"ECCENTRICITY":0.00170622,"INCLINATION":88.9703,"RA_OF_ASC_NODE":80.0171,"ARG_OF_PERICENTER":62.8981,"MEAN_ANOMALY":297.3909,"EPHEMERIS_TYPE":0,"NORAD_CAT_ID":62798,"ELEMENT_SET_NO":999,"REV_AT_EPOCH":7728,"BSTAR":0.00012395396,"MEAN_MOTION_DOT":9.2e-7,"MEAN_MOTION_DDOT":0},{"OBJECT_NAME":"QIANFAN-69","OBJECT_ID":"2025-016Q","EPOCH":"2026-07-23T06:10:38.526240","CLASSIFICATION_TYPE":"U","MEAN_MOTION":13.51019599,"ECCENTRICITY":0.00178085,"INCLINATION":88.9682,"RA_OF_ASC_NODE":79.8375,"ARG_OF_PERICENTER":64.0544,"MEAN_ANOMALY":296.2439,"EPHEMERIS_TYPE":0,"NORAD_CAT_ID":62799,"ELEMENT_SET_NO":999,"REV_AT_EPOCH":7732,"BSTAR":0.000088387408,"MEAN_MOTION_DOT":6.9e-7,"MEAN_MOTION_DDOT":0}]}
